{
  "type": "Feature",
  "properties": {
    "name": "Региональная область анализа — Калмыкия",
    "description": "Приближённый региональный охват, сопоставимый с территорией Республики Калмыкия; область можно изменить инструментами рисования"
  },
  "geometry": {
    "type": "Polygon",
    "coordinates": [
      [
        [42.65, 47.35],
        [43.15, 48.2],
        [45.1, 48.25],
        [46.5, 47.85],
        [47.5, 46.75],
        [47.3, 45.35],
        [46.2, 44.75],
        [44.35, 44.85],
        [43.15, 45.55],
        [42.65, 47.35]
      ]
    ]
  }
}
